CCSDS_OMM_VERS = 2.0
CREATION_DATE  = 
ORIGINATOR     = 

OBJECT_NAME    = UNKNOWN
OBJECT_ID      = 
CENTER_NAME    = EARTH
REF_FRAME      = TEME
TIME_SYSTEM    = UTC
MEAN_ELEMENT_THEORY = SGP/SGP4

EPOCH          = 2026-01-07T23:53:38.481792
MEAN_MOTION    = 12.68541767
ECCENTRICITY   = .0055628
INCLINATION    = 101.9889
RA_OF_ASC_NODE = 191.3594
ARG_OF_PERICENTER = 201.8011
MEAN_ANOMALY   = 313.9146

EPHEMERIS_TYPE = 0
CLASSIFICATION_TYPE = U
NORAD_CAT_ID   = 87569
ELEMENT_SET_NO = 999
REV_AT_EPOCH   = 56179
BSTAR          = .46274E-4
MEAN_MOTION_DOT = -.39E-6
MEAN_MOTION_DDOT = 0

CCSDS_OMM_VERS = 2.0
CREATION_DATE  = 
ORIGINATOR     = 

OBJECT_NAME    = UNKNOWN
OBJECT_ID      = 
CENTER_NAME    = EARTH
REF_FRAME      = TEME
TIME_SYSTEM    = UTC
MEAN_ELEMENT_THEORY = SGP/SGP4

EPOCH          = 2026-01-03T21:10:32.282112
MEAN_MOTION    = 14.40074836
ECCENTRICITY   = .0019037
INCLINATION    = 74.0240
RA_OF_ASC_NODE = 61.9489
ARG_OF_PERICENTER = 92.8378
MEAN_ANOMALY   = 267.4956

EPHEMERIS_TYPE = 0
CLASSIFICATION_TYPE = U
NORAD_CAT_ID   = 87587
ELEMENT_SET_NO = 999
REV_AT_EPOCH   = 63699
BSTAR          = .12854E-3
MEAN_MOTION_DOT = .38E-5
MEAN_MOTION_DDOT = 0

CCSDS_OMM_VERS = 2.0
CREATION_DATE  = 
ORIGINATOR     = 

OBJECT_NAME    = UNKNOWN
OBJECT_ID      = 
CENTER_NAME    = EARTH
REF_FRAME      = TEME
TIME_SYSTEM    = UTC
MEAN_ELEMENT_THEORY = SGP/SGP4

EPOCH          = 2025-12-26T01:18:01.037952
MEAN_MOTION    = 14.10343351
ECCENTRICITY   = .0026169
INCLINATION    = 98.7863
RA_OF_ASC_NODE = 36.8672
ARG_OF_PERICENTER = 244.3147
MEAN_ANOMALY   = 144.8879

EPHEMERIS_TYPE = 0
CLASSIFICATION_TYPE = U
NORAD_CAT_ID   = 87590
ELEMENT_SET_NO = 999
REV_AT_EPOCH   = 15612
BSTAR          = .36594E-3
MEAN_MOTION_DOT = .608E-5
MEAN_MOTION_DDOT = 0

CCSDS_OMM_VERS = 2.0
CREATION_DATE  = 
ORIGINATOR     = 

OBJECT_NAME    = UNKNOWN
OBJECT_ID      = 
CENTER_NAME    = EARTH
REF_FRAME      = TEME
TIME_SYSTEM    = UTC
MEAN_ELEMENT_THEORY = SGP/SGP4

EPOCH          = 2025-12-31T16:05:52.662624
MEAN_MOTION    = 12.46913589
ECCENTRICITY   = .0630311
INCLINATION    = 66.0377
RA_OF_ASC_NODE = 111.3347
ARG_OF_PERICENTER = 130.9872
MEAN_ANOMALY   = 352.5779

EPHEMERIS_TYPE = 0
CLASSIFICATION_TYPE = U
NORAD_CAT_ID   = 87616
ELEMENT_SET_NO = 999
REV_AT_EPOCH   = 53859
BSTAR          = .10648E-2
MEAN_MOTION_DOT = .263E-5
MEAN_MOTION_DDOT = 0

CCSDS_OMM_VERS = 2.0
CREATION_DATE  = 
ORIGINATOR     = 

OBJECT_NAME    = UNKNOWN
OBJECT_ID      = 
CENTER_NAME    = EARTH
REF_FRAME      = TEME
TIME_SYSTEM    = UTC
MEAN_ELEMENT_THEORY = SGP/SGP4

EPOCH          = 2026-01-07T13:55:08.677920
MEAN_MOTION    = 14.70328284
ECCENTRICITY   = .0097499
INCLINATION    = 98.6838
RA_OF_ASC_NODE = 311.6686
ARG_OF_PERICENTER = 166.7191
MEAN_ANOMALY   = 193.6614

EPHEMERIS_TYPE = 0
CLASSIFICATION_TYPE = U
NORAD_CAT_ID   = 87624
ELEMENT_SET_NO = 999
REV_AT_EPOCH   = 58407
BSTAR          = .6219E-3
MEAN_MOTION_DOT = .3984E-4
MEAN_MOTION_DDOT = 0

CCSDS_OMM_VERS = 2.0
CREATION_DATE  = 
ORIGINATOR     = 

OBJECT_NAME    = UNKNOWN
OBJECT_ID      = 
CENTER_NAME    = EARTH
REF_FRAME      = TEME
TIME_SYSTEM    = UTC
MEAN_ELEMENT_THEORY = SGP/SGP4

EPOCH          = 2026-01-09T06:08:09.360960
MEAN_MOTION    = 14.62505813
ECCENTRICITY   = .0031518
INCLINATION    = 100.2693
RA_OF_ASC_NODE = 196.1380
ARG_OF_PERICENTER = 202.4829
MEAN_ANOMALY   = 157.4985

EPHEMERIS_TYPE = 0
CLASSIFICATION_TYPE = U
NORAD_CAT_ID   = 87650
ELEMENT_SET_NO = 999
REV_AT_EPOCH   = 8378
BSTAR          = .28654E-2
MEAN_MOTION_DOT = .14594E-3
MEAN_MOTION_DDOT = 0

CCSDS_OMM_VERS = 2.0
CREATION_DATE  = 
ORIGINATOR     = 

OBJECT_NAME    = UNKNOWN
OBJECT_ID      = 
CENTER_NAME    = EARTH
REF_FRAME      = TEME
TIME_SYSTEM    = UTC
MEAN_ELEMENT_THEORY = SGP/SGP4

EPOCH          = 2025-12-31T14:57:06.924384
MEAN_MOTION    = 14.27925953
ECCENTRICITY   = .006316
INCLINATION    = 70.8587
RA_OF_ASC_NODE = 325.8695
ARG_OF_PERICENTER = 246.4635
MEAN_ANOMALY   = 112.9850

EPHEMERIS_TYPE = 0
CLASSIFICATION_TYPE = U
NORAD_CAT_ID   = 87672
ELEMENT_SET_NO = 999
REV_AT_EPOCH   = 62715
BSTAR          = .16536E-2
MEAN_MOTION_DOT = .4139E-4
MEAN_MOTION_DDOT = 0

CCSDS_OMM_VERS = 2.0
CREATION_DATE  = 
ORIGINATOR     = 

OBJECT_NAME    = UNKNOWN
OBJECT_ID      = 
CENTER_NAME    = EARTH
REF_FRAME      = TEME
TIME_SYSTEM    = UTC
MEAN_ELEMENT_THEORY = SGP/SGP4

EPOCH          = 2026-01-07T11:05:57.811488
MEAN_MOTION    = 13.71188032
ECCENTRICITY   = .0151567
INCLINATION    = 66.7368
RA_OF_ASC_NODE = 37.7481
ARG_OF_PERICENTER = 145.6761
MEAN_ANOMALY   = 215.4215

EPHEMERIS_TYPE = 0
CLASSIFICATION_TYPE = U
NORAD_CAT_ID   = 87681
ELEMENT_SET_NO = 999
REV_AT_EPOCH   = 60536
BSTAR          = .10334E-2
MEAN_MOTION_DOT = .932E-5
MEAN_MOTION_DDOT = 0

CCSDS_OMM_VERS = 2.0
CREATION_DATE  = 
ORIGINATOR     = 

OBJECT_NAME    = UNKNOWN
OBJECT_ID      = 
CENTER_NAME    = EARTH
REF_FRAME      = TEME
TIME_SYSTEM    = UTC
MEAN_ELEMENT_THEORY = SGP/SGP4

EPOCH          = 2026-01-09T11:38:11.134176
MEAN_MOTION    = 14.00894687
ECCENTRICITY   = .0578715
INCLINATION    = 65.7934
RA_OF_ASC_NODE = 281.8658
ARG_OF_PERICENTER = 33.2226
MEAN_ANOMALY   = 330.3818

EPHEMERIS_TYPE = 0
CLASSIFICATION_TYPE = U
NORAD_CAT_ID   = 87690
ELEMENT_SET_NO = 999
REV_AT_EPOCH   = 61126
BSTAR          = .14873E-2
MEAN_MOTION_DOT = .9989E-4
MEAN_MOTION_DDOT = 0

CCSDS_OMM_VERS = 2.0
CREATION_DATE  = 
ORIGINATOR     = 

OBJECT_NAME    = UNKNOWN
OBJECT_ID      = 
CENTER_NAME    = EARTH
REF_FRAME      = TEME
TIME_SYSTEM    = UTC
MEAN_ELEMENT_THEORY = SGP/SGP4

EPOCH          = 2026-01-09T12:04:34.516128
MEAN_MOTION    = 14.64755239
ECCENTRICITY   = .0104431
INCLINATION    = 98.6733
RA_OF_ASC_NODE = 199.5791
ARG_OF_PERICENTER = 181.3593
MEAN_ANOMALY   = 237.9593

EPHEMERIS_TYPE = 0
CLASSIFICATION_TYPE = U
NORAD_CAT_ID   = 87706
ELEMENT_SET_NO = 999
REV_AT_EPOCH   = 58258
BSTAR          = .10674E-2
MEAN_MOTION_DOT = .6108E-4
MEAN_MOTION_DDOT = 0

CCSDS_OMM_VERS = 2.0
CREATION_DATE  = 
ORIGINATOR     = 

OBJECT_NAME    = UNKNOWN
OBJECT_ID      = 
CENTER_NAME    = EARTH
REF_FRAME      = TEME
TIME_SYSTEM    = UTC
MEAN_ELEMENT_THEORY = SGP/SGP4

EPOCH          = 2026-01-08T07:39:13.777344
MEAN_MOTION    = 14.99823858
ECCENTRICITY   = .001527
INCLINATION    = 82.8647
RA_OF_ASC_NODE = 231.5596
ARG_OF_PERICENTER = 333.9502
MEAN_ANOMALY   = 26.0952

EPHEMERIS_TYPE = 0
CLASSIFICATION_TYPE = U
NORAD_CAT_ID   = 87725
ELEMENT_SET_NO = 999
REV_AT_EPOCH   = 63790
BSTAR          = .29047E-2
MEAN_MOTION_DOT = .362E-3
MEAN_MOTION_DDOT = 0

CCSDS_OMM_VERS = 2.0
CREATION_DATE  = 
ORIGINATOR     = 

OBJECT_NAME    = UNKNOWN
OBJECT_ID      = 
CENTER_NAME    = EARTH
REF_FRAME      = TEME
TIME_SYSTEM    = UTC
MEAN_ELEMENT_THEORY = SGP/SGP4

EPOCH          = 2026-01-08T19:33:11.525472
MEAN_MOTION    = 13.74511282
ECCENTRICITY   = .0028857
INCLINATION    = 82.9432
RA_OF_ASC_NODE = 214.0690
ARG_OF_PERICENTER = 289.3422
MEAN_ANOMALY   = 70.4614

EPHEMERIS_TYPE = 0
CLASSIFICATION_TYPE = U
NORAD_CAT_ID   = 87730
ELEMENT_SET_NO = 999
REV_AT_EPOCH   = 58905
BSTAR          = .82901E-4
MEAN_MOTION_DOT = .93E-6
MEAN_MOTION_DDOT = 0

