UNKNOWN                 
1 87569U          26007.99558428 -.00000039  00000+0  46274-4 0  9999
2 87569 101.9889 191.3594 0055628 201.8011 313.9146 12.68541767561796
UNKNOWN                 
1 87587U          26003.88231808  .00000380  00000+0  12854-3 0  9997
2 87587  74.0240  61.9489 0019037  92.8378 267.4956 14.40074836636997
UNKNOWN                 
1 87590U          25360.05417868  .00000608  00000+0  36594-3 0  9997
2 87590  98.7863  36.8672 0026169 244.3147 144.8879 14.10343351156124
UNKNOWN                 
1 87616U          25365.67074841  .00000263  00000+0  10648-2 0  9997
2 87616  66.0377 111.3347 0630311 130.9872 352.5779 12.46913589538599
UNKNOWN                 
1 87624U          26007.57996155  .00003984  00000+0  62190-3 0  9993
2 87624  98.6838 311.6686 0097499 166.7191 193.6614 14.70328284584074
UNKNOWN                 
1 87650U          26009.25566390  .00014594  00000+0  28654-2 0  9998
2 87650 100.2693 196.1380 0031518 202.4829 157.4985 14.62505813 83782
UNKNOWN                 
1 87672U          25365.62299681  .00004139  00000+0  16536-2 0  9993
2 87672  70.8587 325.8695 0063160 246.4635 112.9850 14.27925953627155
UNKNOWN                 
1 87681U          26007.46247467  .00000932  00000+0  10334-2 0  9991
2 87681  66.7368  37.7481 0151567 145.6761 215.4215 13.71188032605367
UNKNOWN                 
1 87690U          26009.48485109  .00009989  00000+0  14873-2 0  9995
2 87690  65.7934 281.8658 0578715  33.2226 330.3818 14.00894687611264
UNKNOWN                 
1 87706U          26009.50317727  .00006108  00000+0  10674-2 0  9991
2 87706  98.6733 199.5791 0104431 181.3593 237.9593 14.64755239582582
UNKNOWN                 
1 87725U          26008.31890946  .00036200  00000+0  29047-2 0  9999
2 87725  82.8647 231.5596 0015270 333.9502  26.0952 14.99823858637903
UNKNOWN                 
1 87730U          26008.81471673  .00000093  00000+0  82901-4 0  9993
2 87730  82.9432 214.0690 0028857 289.3422  70.4614 13.74511282589050
